IRIDIUM 126             
1 42809U 17039G   25107.70021913  .00000443  00000+0  15103-3 0  9994
2 42809  86.4026 171.4784 0002080  91.7475 268.3959 14.34218882408966
IRIDIUM 124             
1 42810U 17039H   25107.91567393  .00000346  00000+0  96915-4 0  9999
2 42810  86.4440 108.1773 0002249  96.2045 263.9412 14.43274919413776
IRIDIUM 128             
1 42811U 17039J   25107.83049367  .00000306  00000+0  10209-3 0  9994
2 42811  86.4033 202.8787 0002176 106.3439 253.7996 14.34219257409011
IRIDIUM 121             
1 42812U 17039K   25107.78901606  .00000219  00000+0  71162-4 0  9991
2 42812  86.4024 171.4657 0002499  98.6280 261.5199 14.34217610408858
IRIDIUM 133             
1 42955U 17061A   25107.79243875  .00000402  00000+0  13635-3 0  9996
2 42955  86.4035 203.0012 0002181  98.6671 261.4772 14.34218998393801
IRIDIUM 100             
1 42956U 17061B   25107.78609635  .00000044  00000+0  88173-5 0  9999
2 42956  86.4033 202.9330 0002064  98.6093 261.5337 14.34217864393808
IRIDIUM 122             
1 42957U 17061C   25107.82414907  .00000430  00000+0  14637-3 0  9992
2 42957  86.4034 202.9161 0002005  95.3847 264.7578 14.34220241393814
IRIDIUM 129             
1 42958U 17061D   25108.19836624  .00000101  00000+0  28921-4 0  9995
2 42958  86.4034 202.8225 0002544  86.9334 273.2152 14.34218006393886
